ONEWEB-0159             
1 48062U 21025W   25141.40958835  .00000114  00000+0  27829-3 0  9991
2 48062  87.8989  38.0581 0002103  81.5285 278.6082 13.13470762202170
ONEWEB-0164             
1 48063U 21025X   25141.69567666  .00000343  00000+0  90392-3 0  9990
2 48063  87.8989  38.0118 0001801  79.0615 281.0716 13.13470642202203
ONEWEB-0167             
1 48064U 21025Y   25142.18067064 -.00000024  00000+0 -99711-4 0  9996
2 48064  87.8999  37.9408 0001944 104.0419 256.0926 13.13469069202244
ONEWEB-0166             
1 48065U 21025Z   25142.20352315 -.00000208  00000+0 -60341-3 0  9996
2 48065  87.8983  37.8974 0002008  77.6039 282.5315 13.13473076202328
ONEWEB-0151             
1 48066U 21025AA  25141.74814567 -.00000202  00000+0 -58932-3 0  9994
2 48066  87.8987  38.0096 0001783  83.5809 276.5523 13.13471178202214
ONEWEB-0170             
1 48067U 21025AB  25141.75661554 -.00000011  00000+0 -64014-4 0  9999
2 48067  87.8988  38.0130 0001364  83.6499 276.4785 13.13470951202167
ONEWEB-0168             
1 48068U 21025AC  25142.19843512 -.00000269  00000+0 -77037-3 0  9998
2 48068  87.8992  37.9045 0001875  81.4244 278.7098 13.13471445202236
ONEWEB-0173             
1 48069U 21025AD  25142.18998428 -.00000202  00000+0 -58894-3 0  9992
2 48069  87.8992  37.9146 0002082  92.1617 267.9751 13.13468726202473
